STARLINK-31026          
1 58508U 23191A   25181.90411795 -.00000224  00000+0 -14978-5 0  9998
2 58508  43.0045  35.1939 0001239 262.2552  97.8149 15.02535126 87556
STARLINK-31020          
1 58509U 23191B   25181.90090409 -.00000100  00000+0  77150-5 0  9997
2 58509  43.0039  36.0195 0001846 235.6165 124.4503 15.02535988 87548
STARLINK-30989          
1 58510U 23191C   25180.98539192  .00000344  00000+0  40543-4 0  9997
2 58510  43.0057  39.4815 0000967 267.4554  92.6178 15.02536260 87452
STARLINK-30968          
1 58511U 23191D   25180.98205848  .00000688  00000+0  65989-4 0  9998
2 58511  43.0044  39.4573 0001103 270.4947  89.5769 15.02539897 87420
STARLINK-30982          
1 58512U 23191E   25180.97871197  .00002747  00000+0  21823-3 0  9990
2 58512  43.0037  39.4356 0000994 266.2280  93.8449 15.02553993 87428
STARLINK-30998          
1 58513U 23191F   25181.64017825 -.00000124  00000+0  59023-5 0  9999
2 58513  43.0045  35.7989 0001409 274.2376  85.8305 15.02534553 87553
STARLINK-30983          
1 58514U 23191G   25181.86282319  .00000179  00000+0  28333-4 0  9994
2 58514  43.0038  34.0263 0000962 259.7008 100.3725 15.02530256 87214
STARLINK-31017          
1 58515U 23191H   25181.78541407  .00000101  00000+0  13187-4 0  9998
2 58515  43.0010 213.7782 0001096 275.5102  84.5624 15.27577931 89656
STARLINK-31028          
1 58516U 23191J   25181.89943220 -.00001286  00000+0 -80161-4 0  9993
2 58516  43.0063  34.2977 0001201 270.7876  89.2829 15.02542480 87561
STARLINK-31011          
1 58517U 23191K   25181.90276347  .00000057  00000+0  19261-4 0  9991
2 58517  43.0054  34.3317 0000992 260.2728  99.8003 15.02536366 87564
STARLINK-31021          
1 58518U 23191L   25181.85281234  .00000319  00000+0  38650-4 0  9991
2 58518  43.0039  33.9352 0001080 266.0979  93.9740 15.02537234 87561
STARLINK-31010          
1 58519U 23191M   25181.85614002  .00000528  00000+0  54136-4 0  9994
2 58519  43.0052  33.9259 0001075 270.9749  89.0971 15.02535240 87563
STARLINK-31003          
1 58520U 23191N   25181.89610153  .00000243  00000+0  33043-4 0  9991
2 58520  43.0054  34.2780 0001057 266.0851  93.9871 15.02537987 87563
STARLINK-31015          
1 58521U 23191P   25180.96208413  .00000295  00000+0  36943-4 0  9990
2 58521  43.0039  39.3093 0001265 265.1642  94.9056 15.02536569 87391
STARLINK-31023          
1 58522U 23191Q   25181.88944233  .00000088  00000+0  21578-4 0  9998
2 58522  43.0045  34.2283 0000973 263.2058  96.8674 15.02537965 87566
STARLINK-30932          
1 58523U 23191R   25181.88611360  .00000124  00000+0  24219-4 0  9997
2 58523  43.0039  34.1992 0000895 263.9825  96.0915 15.02537398 87513
STARLINK-30992          
1 58524U 23191S   25181.88278328  .00000462  00000+0  49243-4 0  9990
2 58524  43.0048  34.1728 0000878 248.5758 111.4991 15.02541548 87569
STARLINK-30948          
1 58525U 23191T   25181.87943515  .00001202  00000+0  10397-3 0  9997
2 58525  43.0047  34.1508 0000963 266.6566  93.4166 15.02548552 87563
STARLINK-31013          
1 58526U 23191U   25181.61021825  .00001517  00000+0  12731-3 0  9994
2 58526  43.0044  35.5718 0001141 245.2639 114.8085 15.02543657 87505
STARLINK-31001          
1 58527U 23191V   25181.85946042 -.00000818  00000+0 -45456-4 0  9994
2 58527  43.0033  33.9114 0001843 231.4656 128.6021 15.02546414 87564
STARLINK-31004          
1 58528U 23191W   25181.87278988  .00000744  00000+0  70125-4 0  9991
2 58528  43.0050  34.1033 0001130 257.6428 102.4288 15.02539476 87568
STARLINK-30988          
1 58529U 23191X   25181.86946671  .00000130  00000+0  24670-4 0  9995
2 58529  42.9992  34.0752 0000681 128.4508 231.6396 15.02536673 87564
STARLINK-31009          
1 58530U 23191Y   25181.86613594  .00000238  00000+0  32707-4 0  9991
2 58530  43.0042  34.0506 0001002 266.3223  93.7505 15.02534677 87588
STARLINK-31012          
1 58531U 23192A   25181.61829010  .00000040  00000+0  13495-4 0  9992
2 58531  53.1599 153.4811 0001219  82.1712 277.9427 15.30191928 87397
STARLINK-31035          
1 58532U 23192B   25181.59663476  .00001010  00000+0  46213-4 0  9994
2 58532  53.1600 140.5443 0001154  93.5428 266.5704 15.30193605 87573
STARLINK-31036          
1 58533U 23192C   25181.64996962  .00001867  00000+0  75220-4 0  9990
2 58533  53.1592 153.7062 0001408  96.9468 263.1693 15.30170568 87393
STARLINK-30936          
1 58534U 23192D   25181.60282680  .00002685  00000+0  77112-4 0  9993
2 58534  53.1585 144.1823 0001334  92.2853 267.8304 15.39611457 87521
STARLINK-31032          
1 58535U 23192E   25181.88271304 -.00000040  00000+0  10788-4 0  9995
2 58535  53.1598 152.2867 0001196  91.2331 268.8807 15.30195623 87432
STARLINK-31037          
1 58536U 23192F   25181.36441944 -.00000025  00000+0  11270-4 0  9998
2 58536  53.1592 154.7586 0001258  93.1736 266.9409 15.30191421 87351
STARLINK-31041          
1 58537U 23192G   25181.62461812 -.00000078  00000+0  94750-5 0  9997
2 58537  53.1591 153.5184 0000729  88.0982 272.0103 15.30192851 87391
STARLINK-31014          
1 58538U 23192H   25181.63517328  .00000088  00000+0  15099-4 0  9991
2 58538  53.1595 153.5835 0001244  94.3597 265.7546 15.30189308 87397
STARLINK-31055          
1 58539U 23192J   25181.63833907 -.00000160  00000+0  67227-5 0  9999
2 58539  53.1592 153.6024 0001239  95.8442 264.2700 15.30189470 87391
STARLINK-31019          
1 58540U 23192K   25181.43289595  .00000240  00000+0  20241-4 0  9999
2 58540  53.1593 154.4543 0001244  94.5829 265.5314 15.30192142 87362
STARLINK-31045          
1 58541U 23192L   25181.91668981  .00100744  00000+0  44735-2 0  9995
2 58541  53.1604 228.8709 0002480  73.2818 103.3217 15.20737111  5799
STARLINK-31030          
1 58542U 23192M   25181.64150488 -.00001498  00000+0 -38468-4 0  9990
2 58542  53.1594 153.6216 0001255  94.4235 265.6909 15.30183319 87395
STARLINK-31049          
1 58543U 23192N   25181.90592497 -.00002091  00000+0 -58528-4 0  9999
2 58543  53.1595 152.4283 0001224  88.6392 271.4749 15.30187989 88624
STARLINK-31048          
1 58544U 23192P   25181.21372932 -.00000884  00000+0 -17710-4 0  9990
2 58544  53.1593 155.1784 0001246  83.0252 277.0891 15.30202281 88530
STARLINK-31057          
1 58545U 23192Q   25181.90909836 -.00000619  00000+0 -87932-5 0  9996
2 58545  53.1601 152.4464 0001210  65.7586 294.3541 15.30188058 87431
STARLINK-31050          
1 58546U 23192R   25181.91225723  .00000582  00000+0  31787-4 0  9997
2 58546  53.1592 152.4673 0001597  86.3446 273.7737 15.30190528 87438
STARLINK-31063          
1 58547U 23192S   25181.26858156  .00000365  00000+0  24447-4 0  9992
2 58547  53.1583 144.8764 0001302  95.4276 264.6874 15.30190791 87489
STARLINK-31016          
1 58548U 23192T   25181.41283628  .00000372  00000+0  24686-4 0  9999
2 58548  53.1596 154.2864 0001069  87.8037 272.3086 15.30197204 87364
STARLINK-31053          
1 58549U 23192U   25181.91542564  .00000087  00000+0  15070-4 0  9992
2 58549  53.1608 152.4854 0001414  90.9393 269.1769 15.30191734 87434
STARLINK-31056          
1 58550U 23192V   25181.93853124 -.00000105  00000+0  85783-5 0  9994
2 58550  53.1595 151.9262 0001260  89.2546 270.8599 15.30192478 87445
STARLINK-30999          
1 58551U 23192W   25181.89861304 -.00000085  00000+0  92461-5 0  9997
2 58551  53.1590 142.3234 0001273  83.8021 276.3125 15.30192261 87576
STARLINK-31046          
1 58552U 23192X   25181.40029058  .00000990  00000+0  45535-4 0  9990
2 58552  53.1597 154.9591 0001193  77.0928 283.0206 15.30195846 87354
STARLINK-31044          
1 58589U 23200A   25181.17447452  .00000150  00000+0  26163-4 0  9990
2 58589  43.0033 101.9739 0000998 259.1918 100.8812 15.02533719 85617
STARLINK-31062          
1 58590U 23200B   25180.19542404  .00000378  00000+0  43043-4 0  9994
2 58590  43.0024 109.2545 0000620 264.0765  96.0006 15.02532634 85449
STARLINK-31096          
1 58592U 23200D   25181.22022283  .00000539  00000+0  54992-4 0  9993
2 58592  43.0028 103.1882 0000904 260.5552  99.5189 15.02535608 85604
STARLINK-31094          
1 58593U 23200E   25181.82938147  .00000310  00000+0  38041-4 0  9999
2 58593  43.0030  99.1641 0000981 266.6734  93.3996 15.02535870 85709
STARLINK-31075          
1 58594U 23200F   25181.48367244  .00000497  00000+0  51843-4 0  9997
2 58594  43.0041 100.8603 0000913 266.3149  93.7589 15.02534020 85654
STARLINK-30857          
1 58595U 23200G   25181.81939118 -.00000063  00000+0  10374-4 0  9994
2 58595  43.0046  99.0903 0000597 274.5452  85.5322 15.02536625 85701
STARLINK-31059          
1 58596U 23200H   25181.77271879  .00002048  00000+0  83902-4 0  9994
2 58596  43.0011 354.8219 0000748 247.1944 112.8829 15.27581038 86922
STARLINK-31087          
1 58597U 23200J   25181.87920986  .00000288  00000+0  36409-4 0  9990
2 58597  43.0028  98.6764 0000954 260.0759  99.9976 15.02537192 85603
STARLINK-31079          
1 58598U 23200K   25181.11899874  .00004568  00000+0  34331-3 0  9995
2 58598  43.0019 102.4379 0000748 117.1210 242.9709 15.03601910 85600
STARLINK-31052          
1 58600U 23200M   25181.47368346  .00000268  00000+0  34886-4 0  9992
2 58600  43.0040 100.7951 0001078 263.8068  96.2652 15.02534820 85658
STARLINK-31074          
1 58601U 23200N   25181.47035458 -.00000364  00000+0 -11898-4 0  9995
2 58601  43.0027 100.7710 0001073 265.2997  94.7722 15.02534186 85655
STARLINK-31071          
1 58602U 23200P   25181.82845316  .00005918  00000+0  23585-3 0  9990
2 58602  42.9990 350.8613 0001514 279.9925  80.0755 15.25916831 86972
STARLINK-31080          
1 58603U 23200Q   25180.20394683 -.00000120  00000+0  61633-5 0  9997
2 58603  43.0031 107.6079 0000774 267.4229  92.6524 15.02530926 85278
STARLINK-31088          
1 58604U 23200R   25181.46369325  .00000189  00000+0  29027-4 0  9996
2 58604  43.0041 100.7042 0000970 269.6519  90.4213 15.02533873 85655
